[{"OBJECT_NAME":"STARLINK-5469","OBJECT_ID":"2023-021X","EPOCH":"2026-03-09T18:09:20.580480","MEAN_MOTION":14.98331595,"ECCENTRICITY":0.0003345,"INCLINATION":70.0017,"RA_OF_ASC_NODE":184.1969,"ARG_OF_PERICENTER":270.4714,"MEAN_ANOMALY":89.6062,"EPHEMERIS_TYPE":0,"CLASSIFICATION_TYPE":"U","NORAD_CAT_ID":55649,"ELEMENT_SET_NO":999,"REV_AT_EPOCH":16880,"BSTAR":1.2115723e-5,"MEAN_MOTION_DOT":5.2e-7,"MEAN_MOTION_DDOT":0},{"OBJECT_NAME":"SITRO-AIS 22","OBJECT_ID":"2024-199F","EPOCH":"2026-03-09T22:54:34.366752","MEAN_MOTION":14.95387083,"ECCENTRICITY":0.00134988,"INCLINATION":97.3323,"RA_OF_ASC_NODE":273.3747,"ARG_OF_PERICENTER":41.8157,"MEAN_ANOMALY":318.4094,"EPHEMERIS_TYPE":0,"CLASSIFICATION_TYPE":"U","NORAD_CAT_ID":61740,"ELEMENT_SET_NO":999,"REV_AT_EPOCH":11708,"BSTAR":0.00031759382,"MEAN_MOTION_DOT":3.46e-5,"MEAN_MOTION_DDOT":0}]
